API VERSION: 1.2
API SOURCE: NASA/JPL Horizons API



*******************************************************************************
Ephemeris / API_USER Sat Jul 11 19:36:50 2026 Pasadena, USA      / Horizons    
*******************************************************************************
Target body name: 2060 Chiron (1977 UB)           {source: JPL#171}
Center body name: Earth (399)                     {source: DE441}
Center-site name: GEOCENTRIC
*******************************************************************************
Start time      : A.D. 1985-Jan-01 00:00:00.0000 UT      
Stop  time      : A.D. 1990-Jan-01 00:00:00.0000 UT      
Step-size       : 2880 minutes
*******************************************************************************
Target pole/equ : undefined
Target radii    : 83. km                                                       
Center geodetic : 0.0, 0.0, -6378.137             {E-lon(deg),Lat(deg),Alt(km)}
Center cylindric: 0.0, 0.0, 0.0                   {E-lon(deg),Dxy(km),Dz(km)}
Center pole/equ : ITRF93                          {East-longitude positive}
Center radii    : 6378.137, 6378.137, 6356.752 km {Equator_a, b, pole_c}       
Target primary  : Sun
Vis. interferer : MOON (R_eq= 1737.400) km        {source: DE441}
Rel. light bend : Sun                             {source: DE441}
Rel. lght bnd GM: 1.3271E+11 km^3/s^2                                          
Small-body perts: Yes                             {source: SB441-N16}
Atmos refraction: NO (AIRLESS)
RA format       : DEG
Time format     : CAL 
Calendar mode   : Mixed Julian/Gregorian
EOP file        : eop.260710.p261006                                           
EOP coverage    : DATA-BASED 1962-JAN-20 TO 2026-JUL-10. PREDICTS-> 2026-OCT-05
Units conversion: 1 au= 149597870.700 km, c= 299792.458 km/s, 1 day= 86400.0 s 
Table cut-offs 1: Elevation (-90.0deg=NO ),Airmass (>38.000=NO), Daylight (NO )
Table cut-offs 2: Solar elongation (  0.0,180.0=NO ),Local Hour Angle( 0.0=NO )
Table cut-offs 3: RA/DEC angular rate (     0.0=NO )                           
*******************************************************************************
Initial IAU76/J2000 heliocentric ecliptic osculating elements (au, days, deg.):
  EPOCH=  2457916.5 ! 2017-Jun-12.00 (TDB)         Residual RMS= .19933        
   EC= .3824171374703196   QR= 8.427522999110739   TP= 2450143.7110841358      
   OM= 209.2011323125998   W=  339.6529896907077   IN= 6.94959060447848        
  Equivalent ICRF heliocentric cartesian coordinates (au, au/d):
   X= 1.843374627977423E+01  Y=-1.877818593473934E+00  Z= 5.548833989583914E-01
  VX= 7.316266023833624E-04 VY= 2.960187278972600E-03 VZ= 9.710586201315230E-04
Asteroid physical parameters (km, seconds, rotational period in hours):        
   GM= n.a.                RAD= 83.                ROTPER= 5.918               
   H= 5.54                 G= .150                 B-V= .704                   
                           ALBEDO= .150            STYP= Cb                    
*******************************************************************************
 Date__(UT)__HR:MN        ObsEcLon    ObsEcLat
**********************************************
$$SOE
 1989-Sep-25 00:00     105.8572591  -6.4701635
 1989-Sep-27 00:00     105.9449079  -6.4901108
 1989-Sep-29 00:00     106.0273437  -6.5103088
 1989-Oct-01 00:00     106.1045061  -6.5307393
 1989-Oct-03 00:00     106.1763406  -6.5513837
 1989-Oct-05 00:00     106.2427825  -6.5722225
 1989-Oct-07 00:00     106.3037507  -6.5932363
 1989-Oct-09 00:00     106.3591499  -6.6144055
 1989-Oct-11 00:00     106.4088847  -6.6357108
 1989-Oct-13 00:00     106.4528915  -6.6571331
 1989-Oct-15 00:00     106.4911741  -6.6786541
 1989-Oct-17 00:00     106.5237606  -6.7002548
 1989-Oct-19 00:00     106.5506022  -6.7219146
 1989-Oct-21 00:00     106.5715811  -6.7436104
 1989-Oct-23 00:00     106.5866005  -6.7653166
 1989-Oct-25 00:00     106.5956216  -6.7870058
 1989-Oct-27 00:00     106.5986494  -6.8086494
 1989-Oct-29 00:00     106.5957103  -6.8302182
 1989-Oct-31 00:00     106.5868347  -6.8516822
 1989-Nov-02 00:00     106.5720436  -6.8730116
 1989-Nov-04 00:00     106.5513456  -6.8941763
 1989-Nov-06 00:00     106.5247457  -6.9151469
 1989-Nov-08 00:00     106.4922655  -6.9358943
 1989-Nov-10 00:00     106.4539734  -6.9563903
 1989-Nov-12 00:00     106.4099988  -6.9766076
 1989-Nov-14 00:00     106.3604771  -6.9965184
 1989-Nov-16 00:00     106.3054605  -7.0160940
 1989-Nov-18 00:00     106.2449484  -7.0353031
 1989-Nov-20 00:00     106.1789854  -7.0541129
 1989-Nov-22 00:00     106.1076858  -7.0724897
 1989-Nov-24 00:00     106.0312044  -7.0903995
 1989-Nov-26 00:00     105.9497116  -7.1078089
 1989-Nov-28 00:00     105.8633783  -7.1246851
 1989-Nov-30 00:00     105.7723657  -7.1409963
 1989-Dec-02 00:00     105.6768251  -7.1567122
 1989-Dec-04 00:00     105.5769124  -7.1718043
 1989-Dec-06 00:00     105.4728144  -7.1862459
 1989-Dec-08 00:00     105.3647708  -7.2000126
 1989-Dec-10 00:00     105.2530644  -7.2130816
 1989-Dec-12 00:00     105.1379573  -7.2254311
 1989-Dec-14 00:00     105.0196303  -7.2370391
 1989-Dec-16 00:00     104.8982283  -7.2478829
 1989-Dec-18 00:00     104.7739524  -7.2579394
 1989-Dec-20 00:00     104.6470713  -7.2671864
 1989-Dec-22 00:00     104.5178834  -7.2756033
 1989-Dec-24 00:00     104.3866897  -7.2831717
 1989-Dec-26 00:00     104.2537819  -7.2898754
 1989-Dec-28 00:00     104.1194347  -7.2957007
 1989-Dec-30 00:00     103.9839081  -7.3006371
 1990-Jan-01 00:00     103.8474663  -7.3046775
